[{"OBJECT_NAME":"FLOCK 4Q-2","OBJECT_ID":"2023-174BS","EPOCH":"2026-03-09T22:26:57.301152","MEAN_MOTION":15.45032023,"ECCENTRICITY":0.00079502,"INCLINATION":97.3857,"RA_OF_ASC_NODE":155.3481,"ARG_OF_PERICENTER":138.165,"MEAN_ANOMALY":222.0207,"EPHEMERIS_TYPE":0,"CLASSIFICATION_TYPE":"U","NORAD_CAT_ID":58320,"ELEMENT_SET_NO":999,"REV_AT_EPOCH":13025,"BSTAR":0.00060928671,"MEAN_MOTION_DOT":0.00028766,"MEAN_MOTION_DDOT":0},{"OBJECT_NAME":"OBJECT AS","OBJECT_ID":"2024-199AS","EPOCH":"2026-03-09T22:02:20.934240","MEAN_MOTION":15.4118193,"ECCENTRICITY":0.00141686,"INCLINATION":97.3146,"RA_OF_ASC_NODE":300.9729,"ARG_OF_PERICENTER":280.4817,"MEAN_ANOMALY":79.4833,"EPHEMERIS_TYPE":0,"CLASSIFICATION_TYPE":"U","NORAD_CAT_ID":61775,"ELEMENT_SET_NO":999,"REV_AT_EPOCH":11886,"BSTAR":0.0004768324,"MEAN_MOTION_DOT":0.00019789,"MEAN_MOTION_DDOT":0}]
